IRIDIUM 7               
1 24793U 97020B   25249.77707407  .00000544  00000+0  18054-3 0  9997
2 24793  86.4001 142.7584 0001962  92.9120 267.2302 14.35994490483609
IRIDIUM 5               
1 24795U 97020D   25249.92155049  .00010137  00000+0  82441-3 0  9995
2 24795  86.3866  45.9955 0106473 203.8439 155.7840 14.95024109497671
IRIDIUM 4               
1 24796U 97020E   25249.77901605  .00000563  00000+0  18393-3 0  9993
2 24796  86.3991 139.5829 0001993  86.3533 273.7893 14.36895235484183
IRIDIUM 914             
1 24836U 97030A   25249.97040131  .00000636  00000+0  19205-3 0  9993
2 24836  86.3985 147.8573 0001523  37.3876 322.7429 14.40937994618907
IRIDIUM 16              
1 24841U 97030F   25249.84448918  .00000626  00000+0  19736-3 0  9998
2 24841  86.4106 171.0037 0003551 121.4586 238.6960 14.38771318478743
IRIDIUM 911             
1 24842U 97030G   25249.88599354  .00000912  00000+0  24141-3 0  9998
2 24842  86.4530 169.6691 0013934 176.1663 183.9650 14.47727399486908
IRIDIUM 17              
1 24870U 97034B   25249.95146281  .00000757  00000+0  24460-3 0  9999
2 24870  86.4002 200.3800 0003855  95.2818 264.8820 14.37893451475337
IRIDIUM 920             
1 24871U 97034C   25249.92301443  .00000706  00000+0  21096-3 0  9996
2 24871  86.4045 179.4601 0011909 161.3308 198.8331 14.41600650478358
